{
  "type": "FeatureCollection",
  "features": [
    {
      "type": "Feature",
      "properties": {
        "norad_id": 66933,
        "name": "STARLINK-36157",
        "group": "last-30-days",
        "lat": -2.5498758511887294,
        "lon": 171.41196292245306,
        "alt_km": 382.3000599901625,
        "timestamp": "2025-12-24T22:42:20.747471+00:00",
        "meta_object_name": "STARLINK-36157",
        "meta_object_id": "2025-286J",
        "meta_epoch": "2025-12-24T06:00:02.000160",
        "meta_mean_motion": 15.65322357,
        "meta_eccentricity": 0.0001559,
        "meta_inclination": 53.1594,
        "meta_ra_of_asc_node": 352.9004,
        "meta_arg_of_pericenter": 94.0001,
        "meta_mean_anomaly": 128.3087,
        "meta_ephemeris_type": 0,
        "meta_classification_type": "U",
        "meta_norad_cat_id": 66933,
        "meta_element_set_no": 999,
        "meta_rev_at_epoch": 384,
        "meta_bstar": -0.022705671,
        "meta_mean_motion_dot": -0.02022297,
        "meta_mean_motion_ddot": 0,
        "tle_line1": "1 66933U 25286J   25358.25002315 -.02022297  00000+0 -22706-1 0  9994",
        "tle_line2": "2 66933  53.1594 352.9004 0001559  94.0001 128.3087 15.65322357  3846"
      },
      "geometry": {
        "type": "Point",
        "coordinates": [
          171.41196292245306,
          -2.5498758511887294
        ]
      }
    },
    {
      "type": "Feature",
      "properties": {
        "norad_id": 66934,
        "name": "STARLINK-36153",
        "group": "last-30-days",
        "lat": -4.075973380882886,
        "lon": 172.55756026153753,
        "alt_km": 382.56921672496446,
        "timestamp": "2025-12-24T22:42:20.747481+00:00",
        "meta_object_name": "STARLINK-36153",
        "meta_object_id": "2025-286K",
        "meta_epoch": "2025-12-24T06:00:02.000160",
        "meta_mean_motion": 15.65328192,
        "meta_eccentricity": 0.00014668,
        "meta_inclination": 53.1596,
        "meta_ra_of_asc_node": 352.8968,
        "meta_arg_of_pericenter": 93.3286,
        "meta_mean_anomaly": 130.8973,
        "meta_ephemeris_type": 0,
        "meta_classification_type": "U",
        "meta_norad_cat_id": 66934,
        "meta_element_set_no": 999,
        "meta_rev_at_epoch": 384,
        "meta_bstar": -0.022832472,
        "meta_mean_motion_dot": -0.02032536,
        "meta_mean_motion_ddot": 0,
        "tle_line1": "1 66934U 25286K   25358.25002315 -.02032536  00000+0 -22832-1 0  9992",
        "tle_line2": "2 66934  53.1596 352.8968 0001466  93.3286 130.8973 15.65328192  3846"
      },
      "geometry": {
        "type": "Point",
        "coordinates": [
          172.55756026153753,
          -4.075973380882886
        ]
      }
    },
    {
      "type": "Feature",
      "properties": {
        "norad_id": 66935,
        "name": "STARLINK-36127",
        "group": "last-30-days",
        "lat": -5.608753719243685,
        "lon": 173.71263527718543,
        "alt_km": 382.823523128538,
        "timestamp": "2025-12-24T22:42:20.747493+00:00",
        "meta_object_name": "STARLINK-36127",
        "meta_object_id": "2025-286L",
        "meta_epoch": "2025-12-24T06:00:02.000160",
        "meta_mean_motion": 15.65324894,
        "meta_eccentricity": 0.00014444,
        "meta_inclination": 53.1594,
        "meta_ra_of_asc_node": 352.892,
        "meta_arg_of_pericenter": 89.5409,
        "meta_mean_anomaly": 136.6038,
        "meta_ephemeris_type": 0,
        "meta_classification_type": "U",
        "meta_norad_cat_id": 66935,
        "meta_element_set_no": 999,
        "meta_rev_at_epoch": 384,
        "meta_bstar": -0.022776818,
        "meta_mean_motion_dot": -0.0202794,
        "meta_mean_motion_ddot": 0,
        "tle_line1": "1 66935U 25286L   25358.25002315 -.02027940  00000+0 -22777-1 0  9994",
        "tle_line2": "2 66935  53.1594 352.8920 0001444  89.5409 136.6038 15.65324894  3844"
      },
      "geometry": {
        "type": "Point",
        "coordinates": [
          173.71263527718543,
          -5.608753719243685
        ]
      }
    },
    {
      "type": "Feature",
      "properties": {
        "norad_id": 66936,
        "name": "STARLINK-36160",
        "group": "last-30-days",
        "lat": -7.134253523932108,
        "lon": 174.8715229455896,
        "alt_km": 383.05527838877606,
        "timestamp": "2025-12-24T22:42:20.747505+00:00",
        "meta_object_name": "STARLINK-36160",
        "meta_object_id": "2025-286M",
        "meta_epoch": "2025-12-24T06:00:02.000160",
        "meta_mean_motion": 15.65332473,
        "meta_eccentricity": 0.00014035,
        "meta_inclination": 53.1592,
        "meta_ra_of_asc_node": 352.8887,
        "meta_arg_of_pericenter": 89.0174,
        "meta_mean_anomaly": 139.0387,
        "meta_ephemeris_type": 0,
        "meta_classification_type": "U",
        "meta_norad_cat_id": 66936,
        "meta_element_set_no": 999,
        "meta_rev_at_epoch": 384,
        "meta_bstar": -0.022870317,
        "meta_mean_motion_dot": -0.02035744,
        "meta_mean_motion_ddot": 0,
        "tle_line1": "1 66936U 25286M   25358.25002315 -.02035744  00000+0 -22870-1 0  9990",
        "tle_line2": "2 66936  53.1592 352.8887 0001403  89.0174 139.0387 15.65332473  3840"
      },
      "geometry": {
        "type": "Point",
        "coordinates": [
          174.8715229455896,
          -7.134253523932108
        ]
      }
    },
    {
      "type": "Feature",
      "properties": {
        "norad_id": 66937,
        "name": "STARLINK-36165",
        "group": "last-30-days",
        "lat": -8.66382140036008,
        "lon": 176.04262345453506,
        "alt_km": 383.2061128226187,
        "timestamp": "2025-12-24T22:42:20.747517+00:00",
        "meta_object_name": "STARLINK-36165",
        "meta_object_id": "2025-286N",
        "meta_epoch": "2025-12-24T06:00:02.000160",
        "meta_mean_motion": 15.65325165,
        "meta_eccentricity": 0.0001518,
        "meta_inclination": 53.1594,
        "meta_ra_of_asc_node": 352.8845,
        "meta_arg_of_pericenter": 92.6923,
        "meta_mean_anomaly": 137.2828,
        "meta_ephemeris_type": 0,
        "meta_classification_type": "U",
        "meta_norad_cat_id": 66937,
        "meta_element_set_no": 999,
        "meta_rev_at_epoch": 384,
        "meta_bstar": -0.022750792,
        "meta_mean_motion_dot": -0.02025988,
        "meta_mean_motion_ddot": 0,
        "tle_line1": "1 66937U 25286N   25358.25002315 -.02025988  00000+0 -22751-1 0  9998",
        "tle_line2": "2 66937  53.1594 352.8845 0001518  92.6923 137.2828 15.65325165  3846"
      },
      "geometry": {
        "type": "Point",
        "coordinates": [
          176.04262345453506,
          -8.66382140036008
        ]
      }
    },
    {
      "type": "Feature",
      "properties": {
        "norad_id": 66938,
        "name": "STARLINK-36155",
        "group": "last-30-days",
        "lat": -10.183344303905928,
        "lon": 177.2180132128144,
        "alt_km": 383.4242598654746,
        "timestamp": "2025-12-24T22:42:20.747527+00:00",
        "meta_object_name": "STARLINK-36155",
        "meta_object_id": "2025-286P",
        "meta_epoch": "2025-12-24T06:00:02.000160",
        "meta_mean_motion": 15.65326153,
        "meta_eccentricity": 0.00014034,
        "meta_inclination": 53.1595,
        "meta_ra_of_asc_node": 352.88,
        "meta_arg_of_pericenter": 91.3211,
        "meta_mean_anomaly": 140.5724,
        "meta_ephemeris_type": 0,
        "meta_classification_type": "U",
        "meta_norad_cat_id": 66938,
        "meta_element_set_no": 999,
        "meta_rev_at_epoch": 384,
        "meta_bstar": -0.022780142,
        "meta_mean_motion_dot": -0.02028257,
        "meta_mean_motion_ddot": 0,
        "tle_line1": "1 66938U 25286P   25358.25002315 -.02028257  00000+0 -22780-1 0  9993",
        "tle_line2": "2 66938  53.1595 352.8800 0001403  91.3211 140.5724 15.65326153  3848"
      },
      "geometry": {
        "type": "Point",
        "coordinates": [
          177.2180132128144,
          -10.183344303905928
        ]
      }
    },
    {
      "type": "Feature",
      "properties": {
        "norad_id": 66939,
        "name": "STARLINK-36154",
        "group": "last-30-days",
        "lat": -13.214302423349288,
        "lon": 179.60958411949125,
        "alt_km": 383.8247280117221,
        "timestamp": "2025-12-24T22:42:20.747537+00:00",
        "meta_object_name": "STARLINK-36154",
        "meta_object_id": "2025-286Q",
        "meta_epoch": "2025-12-24T06:00:02.000160",
        "meta_mean_motion": 15.65322875,
        "meta_eccentricity": 0.0001494,
        "meta_inclination": 53.1593,
        "meta_ra_of_asc_node": 352.8717,
        "meta_arg_of_pericenter": 90.4306,
        "meta_mean_anomaly": 145.2968,
        "meta_ephemeris_type": 0,
        "meta_classification_type": "U",
        "meta_norad_cat_id": 66939,
        "meta_element_set_no": 999,
        "meta_rev_at_epoch": 384,
        "meta_bstar": -0.02272333,
        "meta_mean_motion_dot": -0.02023661,
        "meta_mean_motion_ddot": 0,
        "tle_line1": "1 66939U 25286Q   25358.25002315 -.02023661  00000+0 -22723-1 0  9995",
        "tle_line2": "2 66939  53.1593 352.8717 0001494  90.4306 145.2968 15.65322875  3848"
      },
      "geometry": {
        "type": "Point",
        "coordinates": [
          179.60958411949125,
          -13.214302423349288
        ]
      }
    }
  ]
}